TEVEL2-2                
1 63219U 25052K   26068.64848259  .00020339  00000+0  69428-3 0  9991
2 63219  97.3987 324.7700 0004693 105.7930 254.3828 15.30343745 54855
STARLINK-33651          
1 63588U 25076V   26068.05796201  .00034605  00000+0  12600-2 0  9990
2 63588  42.9966 325.2776 0001367 264.0688  96.0008 15.27609489 51731
